[{"OBJECT_NAME":"STARLINK-4723","OBJECT_ID":"2022-111AA","EPOCH":"2026-03-09T19:56:39.443712","MEAN_MOTION":15.08844385,"ECCENTRICITY":0.00013674,"INCLINATION":53.2164,"RA_OF_ASC_NODE":273.0518,"ARG_OF_PERICENTER":89.5075,"MEAN_ANOMALY":270.6074,"EPHEMERIS_TYPE":0,"CLASSIFICATION_TYPE":"U","NORAD_CAT_ID":53797,"ELEMENT_SET_NO":999,"REV_AT_EPOCH":19370,"BSTAR":4.5328823e-5,"MEAN_MOTION_DOT":4.34e-6,"MEAN_MOTION_DDOT":0},{"OBJECT_NAME":"COSMOS 2251 DEB","OBJECT_ID":"1993-036KZ","EPOCH":"2026-03-09T13:28:08.575968","MEAN_MOTION":15.07827872,"ECCENTRICITY":0.00279097,"INCLINATION":73.9949,"RA_OF_ASC_NODE":118.7357,"ARG_OF_PERICENTER":226.7607,"MEAN_ANOMALY":259.798,"EPHEMERIS_TYPE":0,"CLASSIFICATION_TYPE":"U","NORAD_CAT_ID":34128,"ELEMENT_SET_NO":999,"REV_AT_EPOCH":90472,"BSTAR":0.0021198383,"MEAN_MOTION_DOT":0.0003287,"MEAN_MOTION_DDOT":0}]
